{
    "links": {
        "self": "http://www.neowsapp.com/rest/v1/neo/3785784?api_key=iIulBulltgU6a56xZRHN4H3l9WmuAYTsLGpBGhQ2"
    },
    "id": "3785784",
    "neo_reference_id": "3785784",
    "name": "(2017 TZ4)",
    "designation": "2017 TZ4",
    "nasa_jpl_url": "http://ssd.jpl.nasa.gov/sbdb.cgi?sstr=3785784",
    "absolute_magnitude_h": 22.9,
    "estimated_diameter": {
        "kilometers": {
            "estimated_diameter_min": 0.0699125232,
            "estimated_diameter_max": 0.1563291544
        },
        "meters": {
            "estimated_diameter_min": 69.9125232246,
            "estimated_diameter_max": 156.3291544087
        },
        "miles": {
            "estimated_diameter_min": 0.0434416145,
            "estimated_diameter_max": 0.097138403
        },
        "feet": {
            "estimated_diameter_min": 229.3718026961,
            "estimated_diameter_max": 512.8909429502
        }
    },
    "is_potentially_hazardous_asteroid": false,
    "close_approach_data": [
        {
            "close_approach_date": "2017-10-31",
            "close_approach_date_full": "2017-Oct-31 01:39",
            "epoch_date_close_approach": 1509413940000,
            "relative_velocity": {
                "kilometers_per_second": "13.0963998301",
                "kilometers_per_hour": "47147.039388387",
                "miles_per_hour": "29295.3367799675"
            },
            "miss_distance": {
                "astronomical": "0.0495081989",
                "lunar": "19.2586893721",
                "kilometers": "7406321.102976343",
                "miles": "4602074.5323578134"
            },
            "orbiting_body": "Earth"
        }
    ],
    "orbital_data": {
        "orbit_id": "5",
        "orbit_determination_date": "2017-10-28 06:43:05",
        "first_observation_date": "2017-10-13",
        "last_observation_date": "2017-10-26",
        "data_arc_in_days": 13,
        "observations_used": 63,
        "orbit_uncertainty": "8",
        "minimum_orbit_intersection": ".021887",
        "jupiter_tisserand_invariant": "3.632",
        "epoch_osculation": "2458044.5",
        "eccentricity": ".5909611873879579",
        "semi_major_axis": "1.963859926384798",
        "inclination": "7.660870583045504",
        "ascending_node_longitude": "221.45359279",
        "orbital_period": "1005.227102153055",
        "perihelion_distance": ".8032949324248102",
        "perihelion_argument": "231.0801853333661",
        "aphelion_distance": "3.124424920344786",
        "perihelion_time": "2458095.487353847318",
        "mean_anomaly": "341.7399995028788",
        "mean_motion": ".3581280282126603",
        "equinox": "J2000",
        "orbit_class": {
            "orbit_class_type": "APO",
            "orbit_class_description": "Near-Earth asteroid orbits which cross the Earth’s orbit similar to that of 1862 Apollo",
            "orbit_class_range": "a (semi-major axis) > 1.0 AU; q (perihelion) < 1.017 AU"
        }
    },
    "is_sentry_object": false
}